NORAD_CAT_ID,OBJECT_NAME,OBJECT_TYPE,EPOCH,MEAN_MOTION,ECCENTRICITY,INCLINATION,RA_OF_ASC_NODE,ARG_OF_PERICENTER,MEAN_ANOMALY,BSTAR,MEAN_MOTION_DOT,MEAN_MOTION_DDOT,TLE_LINE0,TLE_LINE1,TLE_LINE2,SEMIMAJOR_AXIS,PERIOD,APOGEE,PERIGEE,DECAYED
49430.0,STARLINK-3138,PAYLOAD,2023-01-12 16:28:48,15.08831446,0.0002842,53.2154,0.6816,36.1058,324.0126,-3.5746999999999995e-05,-8.57e-06,0.0,0 STARLINK-3138,1 49430U 21104Y   23012.68667184 -.00000857  00000-0 -35747-4 0  9994,2 49430  53.2154   0.6816 0002842  36.1058 324.0126 15.08831446 65797,6917.906999999998,95.438,541.738,537.805,0.0
49430.0,STARLINK-3138,PAYLOAD,2023-01-12 22:50:21,15.08831802,0.0003,53.2154,359.4935,38.8372,321.2836,4.7935e-05,4.74e-06,0.0,0 STARLINK-3138,1 49430U 21104Y   23012.95163496  .00000474  00000-0  47935-4 0  9996,2 49430  53.2154 359.4935 0003000  38.8372 321.2836 15.08831802 64768,6917.905,95.438,541.846,537.695,0.0
49430.0,STARLINK-3138,PAYLOAD,2023-01-13 05:11:53,15.08830484,0.0002243,53.2148,358.2996,35.3187,324.7954,0.00021652,3.159e-05,0.0,0 STARLINK-3138,1 49430U 21104Y   23013.21659609  .00003159  00000-0  21652-3 0  9992,2 49430  53.2148 358.2996 0002243  35.3187 324.7954 15.08830484 64808,6917.909000000001,95.438,541.326,538.2230000000001,0.0
49430.0,STARLINK-3138,PAYLOAD,2023-01-13 16:19:36,15.08832263,0.000221,53.2148,356.2184,38.5982,321.5168,0.00078437,0.00012215,0.0,0 STARLINK-3138,1 49430U 21104Y   23013.68028149  .00012215  00000-0  78437-3 0  9998,2 49430  53.2148 356.2184 0002210  38.5982 321.5168 15.08832263 64873,6917.904,95.438,541.298,538.24,0.0
49430.0,STARLINK-3138,PAYLOAD,2023-01-14 05:02:41,15.08857918,0.000216,53.2142,353.839,49.59,310.528,0.0014887,0.00023496,0.0,0 STARLINK-3138,1 49430U 21104Y   23014.21020216  .00023496  00000-0  14887-2 0  9996,2 49430  53.2142 353.8390 0002160  49.5900 310.5280 15.08857918 66021,6917.826,95.436,541.185,538.196,0.0
49430.0,STARLINK-3138,PAYLOAD,2023-01-14 08:13:27,15.08868809,0.0002128,53.2143,353.2447,45.302,314.8145,0.0025447,0.00040476,0.0,0 STARLINK-3138,1 49430U 21104Y   23014.34268046  .00040476  00000-0  25447-2 0  9996,2 49430  53.2143 353.2447 0002128  45.3020 314.8145 15.08868809 66040,6917.792,95.436,541.129,538.185,0.0
49430.0,STARLINK-3138,PAYLOAD,2023-01-15 04:53:28,15.08855166,0.0001744,53.2152,349.3786,45.9208,314.1928,0.0015918,0.00025147,0.0,0 STARLINK-3138,1 49430U 21104Y   23015.20380160  .00025147  00000-0  15918-2 0  9994,2 49430  53.2152 349.3786 0001744  45.9208 314.1928 15.08855166 66177,6917.834,95.437,540.906,538.493,0.0
49430.0,STARLINK-3138,PAYLOAD,2023-01-15 08:04:14,15.08861215,0.0002079,53.2143,348.7832,52.8369,307.2813,0.00098369,0.00015411,0.0,0 STARLINK-3138,1 49430U 21104Y   23015.33627916  .00015411  00000-0  98369-3 0  9996,2 49430  53.2143 348.7832 0002079  52.8369 307.2813 15.08861215 65121,6917.816,95.436,541.119,538.242,0.0
49430.0,STARLINK-3138,PAYLOAD,2023-01-16 04:44:14,15.08892165,0.0001751,53.214,344.9177,61.5178,298.599,0.0028386999999999,0.00045245,0.0,0 STARLINK-3138,1 49430U 21104Y   23016.19739139  .00045245  00000-0  28387-2 0  9992,2 49430  53.2140 344.9177 0001751  61.5178 298.5990 15.08892165 66328,6917.721,95.434,540.797,538.375,0.0
49430.0,STARLINK-3138,PAYLOAD,2023-01-16 14:16:33,15.08841439,0.0001888,53.2141,343.1329,74.3466,285.7734,-0.00027069,-4.594e-05,0.0,0 STARLINK-3138,1 49430U 21104Y   23016.59483177 -.00004594  00000-0 -27069-3 0  9995,2 49430  53.2141 343.1329 0001888  74.3466 285.7734 15.08841439 65312,6917.876,95.437,541.047,538.435,0.0
49430.0,STARLINK-3138,PAYLOAD,2023-01-16 22:13:29,15.08812813,0.0001365,53.2135,341.6453,81.7829,278.3318,-1.2691e-06,-3.08e-06,0.0,0 STARLINK-3138,1 49430U 21104Y   23016.92603854 -.00000308  00000-0 -12691-5 0  9994,2 49430  53.2135 341.6453 0001365  81.7829 278.3318 15.08812813 66435,6917.963000000001,95.439,540.773,538.884,0.0
49430.0,STARLINK-3138,PAYLOAD,2023-01-17 14:07:21,15.08828836,0.0001463,53.2138,338.6723,85.8476,274.2684,0.0012619,0.00019846,0.0,0 STARLINK-3138,1 49430U 21104Y   23017.58844855  .00019846  00000-0  12619-2 0  9997,2 49430  53.2138 338.6723 0001463  85.8476 274.2684 15.08828836 65461,6917.915,95.438,540.7919999999999,538.7669999999999,0.0
49430.0,STARLINK-3138,PAYLOAD,2023-01-18 06:01:13,15.08839763,0.0001724,53.2143,335.6998,82.2369,277.8818,0.00092864,0.00014522,0.0,0 STARLINK-3138,1 49430U 21104Y   23018.25085451  .00014522  00000-0  92864-3 0  9998,2 49430  53.2143 335.6998 0001724  82.2369 277.8818 15.08839763 66639,6917.880999999999,95.438,540.939,538.553,0.0
49430.0,STARLINK-3138,PAYLOAD,2023-01-18 13:58:09,15.08850874,0.0001888,53.2141,334.2119,82.766,277.3547,0.00098014,0.0001535,0.0,0 STARLINK-3138,1 49430U 21104Y   23018.58205286  .00015350  00000-0  98014-3 0  9997,2 49430  53.2141 334.2119 0001888  82.7660 277.3547 15.08850874 65614,6917.847,95.437,541.018,538.406,0.0
49430.0,STARLINK-3138,PAYLOAD,2023-01-19 05:51:59,15.08882238,0.0001766999999999,53.2145,331.2356,80.6206,279.4986,0.0012607999999999,0.00019858,0.0,0 STARLINK-3138,1 49430U 21104Y   23019.24443873  .00019858  00000-0  12608-2 0  9998,2 49430  53.2145 331.2356 0001767  80.6206 279.4986 15.08882238 66785,6917.751,95.435,540.839,538.394,0.0
49430.0,STARLINK-3138,PAYLOAD,2023-01-20 02:32:01,15.08832578,0.0002334999999999,53.2144,327.3716,82.0242,278.1015,0.0013189,0.00020761,0.0,0 STARLINK-3138,1 49430U 21104Y   23020.10557436  .00020761  00000-0  13189-2 0  9996,2 49430  53.2144 327.3716 0002335  82.0242 278.1015 15.08832578 66914,6917.903,95.438,541.383,538.153,0.0
49430.0,STARLINK-3138,PAYLOAD,2023-01-20 05:42:48,15.08825868,0.0001766999999999,53.2147,326.7758,92.5895,267.53,0.0011279,0.00017701,0.0,0 STARLINK-3138,1 49430U 21104Y   23020.23805584  .00017701  00000-0  11279-2 0  9998,2 49430  53.2147 326.7758 0001767  92.5895 267.5300 15.08825868 66939,6917.924,95.438,541.011,538.566,0.0
49430.0,STARLINK-3138,PAYLOAD,2023-01-21 05:33:34,15.08869638,0.0001588999999999,53.2129,322.3152,78.9323,281.1848,0.0017503,0.00027701,0.0,0 STARLINK-3138,1 49430U 21104Y   23021.23165304  .00027701  00000-0  17503-2 0  9995,2 49430  53.2129 322.3152 0001589  78.9323 281.1848 15.08869638 67084,6917.79,95.436,540.754,538.556,0.0
49430.0,STARLINK-3138,PAYLOAD,2023-01-22 05:24:21,15.08863596,0.0001499,53.2147,317.8575,66.8413,293.2737,0.0018046,0.00028568,0.0,0 STARLINK-3138,1 49430U 21104Y   23022.22525396  .00028568  00000-0  18046-2 0  9991,2 49430  53.2147 317.8575 0001499  66.8413 293.2737 15.08863596 67233,6917.808000000001,95.436,540.71,538.636,0.0
49430.0,STARLINK-3138,PAYLOAD,2023-01-22 19:42:50,15.08833616,0.0001399,53.2134,315.1789,111.081,249.0332,0.0024409,0.00038766,0.0,0 STARLINK-3138,1 49430U 21104Y   23022.82141646  .00038766  00000-0  24409-2 0  9990,2 49430  53.2134 315.1789 0001399 111.0810 249.0332 15.08833616 67320,6917.9,95.438,540.7330000000001,538.797,0.0
49430.0,STARLINK-3138,PAYLOAD,2023-01-23 19:33:37,15.08849453,0.0001576999999999,53.2141,310.7164,94.9495,265.1677,0.0011247,0.00017662,0.0,0 STARLINK-3138,1 49430U 21104Y   23023.81501795  .00017662  00000-0  11247-2 0  9993,2 49430  53.2141 310.7164 0001577  94.9495 265.1677 15.08849453 67475,6917.851,95.437,540.807,538.626,0.0
49430.0,STARLINK-3138,PAYLOAD,2023-01-25 04:56:43,15.08855456,0.0001038,53.2139,304.4734,75.34100000000001,284.7697,0.00094798,0.00014838,0.0,0 STARLINK-3138,1 49430U 21104Y   23025.20605590  .00014838  00000-0  94798-3 0  9991,2 49430  53.2139 304.4734 0001038  75.3410 284.7697 15.08855456 67689,6917.8330000000005,95.437,540.4159999999999,538.98,0.0
49430.0,STARLINK-3138,PAYLOAD,2023-01-25 17:39:48,15.08840808,0.0001855999999999,53.213,302.0938,78.9075,281.2125,0.00068948,0.00010702,0.0,0 STARLINK-3138,1 49430U 21104Y   23025.73598044  .00010702  00000-0  68948-3 0  9998,2 49430  53.2130 302.0938 0001856  78.9075 281.2125 15.08840808 67766,6917.878000000001,95.438,541.0269999999999,538.4590000000001,0.0
49430.0,STARLINK-3138,PAYLOAD,2023-01-26 03:12:07,15.08862062,7.94e-05,53.2126,300.3105,97.7952,262.313,0.0017547,0.00027765,0.0,0 STARLINK-3138,1 49430U 21104Y   23026.13341661  .00027765  00000-0  17547-2 0  9999,2 49430  53.2126 300.3105 0000794  97.7952 262.3130 15.08862062 67820,6917.813,95.436,540.227,539.129,0.0
49430.0,STARLINK-3138,PAYLOAD,2023-01-26 23:52:08,15.088529,8.82e-05,53.2121,296.442,98.9485,261.1607,0.0012264,0.00019291,0.0,0 STARLINK-3138,1 49430U 21104Y   23026.99453757  .00019291  00000-0  12264-2 0  9999,2 49430  53.2121 296.4420 0000882  98.9485 261.1607 15.08852900 67952,6917.840999999999,95.437,540.316,539.096,0.0
49430.0,STARLINK-3138,PAYLOAD,2023-01-27 03:02:54,15.08855596,8.690000000000001e-05,53.2123,295.8476,84.7487,275.3604,0.00079427,0.00012381,0.0,0 STARLINK-3138,1 49430U 21104Y   23027.12701652  .00012381  00000-0  79427-3 0  9993,2 49430  53.2123 295.8476 0000869  84.7487 275.3604 15.08855596 66900,6917.8330000000005,95.437,540.299,539.097,0.0
49430.0,STARLINK-3138,PAYLOAD,2023-01-28 02:53:42,15.08831043,0.0001147999999999,53.2127,291.3878,85.199,274.9133,0.0005551,8.555e-05,0.0,0 STARLINK-3138,1 49430U 21104Y   23028.12062689  .00008555  00000-0  55510-3 0  9999,2 49430  53.2127 291.3878 0001148  85.1990 274.9133 15.08831043 68125,6917.908,95.438,540.567,538.979,0.0
49430.0,STARLINK-3138,PAYLOAD,2023-01-28 21:58:19,15.0884395,0.000117,53.2128,287.8201,67.0181,293.0935,0.00045316,6.932e-05,0.0,0 STARLINK-3138,1 49430U 21104Y   23028.91550675  .00006932  00000-0  45316-3 0  9993,2 49430  53.2128 287.8201 0001170  67.0181 293.0935 15.08843950 67178,6917.868,95.437,540.543,538.924,0.0
49430.0,STARLINK-3138,PAYLOAD,2023-01-29 20:13:43,15.08849095,0.0001224,53.2126,283.6546,76.6473,283.4655,0.00031688,4.76e-05,0.0,0 STARLINK-3138,1 49430U 21104Y   23029.84286335  .00004760  00000-0  31688-3 0  9999,2 49430  53.2126 283.6546 0001224  76.6473 283.4655 15.08849095 68384,6917.853,95.437,540.564,538.871,0.0
